OBJECT_NAME,OBJECT_ID,EPOCH,MEAN_MOTION,ECCENTRICITY,INCLINATION,RA_OF_ASC_NODE,ARG_OF_PERICENTER,MEAN_ANOMALY,EPHEMERIS_TYPE,CLASSIFICATION_TYPE,NORAD_CAT_ID,ELEMENT_SET_NO,REV_AT_EPOCH,BSTAR,MEAN_MOTION_DOT,MEAN_MOTION_DDOT
FENGYUN 3D,2017-072A,2026-06-16T05:32:54.579264,14.19739173,.00026042,99.0120,141.6365,64.3389,295.8055,0,U,43010,999,44485,.22952684E-4,.2E-7,0
NOAA 20 (JPSS-1),2017-073A,2026-06-16T07:06:55.049472,14.19511601,.00002864,98.7771,106.7670,88.6891,271.4318,0,U,43013,999,44434,.46714826E-4,.54E-6,0
GOES 17,2018-022A,2026-06-16T06:06:00.701856,1.00269809,.00004182,0.9353,85.7290,33.7087,147.0847,0,U,43226,999,3041,0,-.183E-5,0
SENTINEL-3B,2018-039A,2026-06-16T01:37:23.087712,14.26734391,.00007239,98.6250,234.6160,87.1563,272.9700,0,U,43437,999,42396,.49011785E-4,.75E-6,0
FENGYUN 2H,2018-050A,2026-06-16T01:24:55.033920,1.00269672,.00020001,3.0276,79.0815,138.2067,147.6875,0,U,43491,999,2942,0,-.132E-5,0
METOP-C,2018-087A,2026-06-16T05:21:41.612256,14.21511898,.00017288,98.6645,226.8446,130.8288,229.3040,0,U,43689,999,39469,.59575852E-4,.87E-6,0
GEO-KOMPSAT-2A,2018-100A,2026-06-16T05:04:03.343584,1.00270942,.00017804,0.0519,117.7259,328.5841,22.4552,0,U,43823,999,2762,0,-.344E-5,0
METEOR-M2 2,2019-038A,2026-06-16T06:16:09.935040,14.24365910,.00021185,98.9137,154.5330,49.3401,310.7962,0,U,44387,999,36116,.5680764E-4,.85E-6,0
ARKTIKA-M 1,2021-016A,2026-06-14T23:57:49.561920,2.00623319,.72877661,63.2382,57.9810,269.9259,14.6142,0,U,47719,999,3874,0,-.233E-5,0
FENGYUN 3E,2021-062A,2026-06-16T06:51:18.139968,14.19904591,.00028324,98.7484,170.7036,87.2113,272.9387,0,U,49008,999,25645,.1352882E-3,.243E-5,0
GOES 18,2022-021A,2026-06-16T05:47:22.538976,1.00270297,.00002965,0.0151,101.4428,60.8043,52.1045,0,U,51850,999,658,0,.96E-6,0
NOAA 21 (JPSS-2),2022-150A,2026-06-16T06:12:50.728608,14.19565353,.00016018,98.7060,106.0638,156.1659,203.9592,0,U,54234,999,18641,.40073387E-4,.41E-6,0
METEOSAT-12 (MTG-I1),2022-170C,2026-06-16T02:44:46.209408,1.00272351,.00031434,0.7370,22.7991,71.6629,210.7035,0,U,54743,999,1296,0,-.9E-7,0
TIANMU-1 03,2023-039A,2026-06-16T06:34:43.258656,15.47262037,.0004226,97.5226,341.2073,101.1946,258.9779,0,U,55973,999,18069,.25176201E-3,.12738E-3,0
TIANMU-1 04,2023-039B,2026-06-16T06:20:04.456608,15.47859632,.00048469,97.5164,340.3504,98.1342,262.0458,0,U,55974,999,18070,.25029297E-3,.1293E-3,0
TIANMU-1 05,2023-039C,2026-06-16T07:40:05.437632,15.47190737,.0003946,97.5212,340.8693,116.9111,243.2542,0,U,55975,999,18068,.24249322E-3,.12234E-3,0
TIANMU-1 06,2023-039D,2026-06-16T06:24:51.423840,15.47764047,.00043412,97.5216,341.4502,112.8872,247.2836,0,U,55976,999,18070,.24953665E-3,.12847E-3,0
FENGYUN 3G,2023-055A,2026-06-16T04:55:51.616992,15.52589892,.00069669,49.9934,351.0803,292.1767,67.8461,0,U,56232,999,17985,.32247383E-3,.19817E-3,0
METEOR-M2 3,2023-091A,2026-06-16T07:48:50.653728,14.24046713,.00043104,98.6090,222.3216,157.6976,202.4391,0,U,57166,999,15439,.17128207E-4,-.4E-7,0
TIANMU-1 07,2023-101A,2026-06-16T05:59:42.885888,15.29799362,.00040482,97.2590,217.9397,123.6274,236.5354,0,U,57399,999,16150,.19217392E-3,.5473E-4,0
TIANMU-1 08,2023-101B,2026-06-16T06:45:52.435296,15.29803931,.00055662,97.2578,217.7418,117.4037,242.7770,0,U,57400,999,16150,.1870709E-3,.5327E-4,0
TIANMU-1 09,2023-101C,2026-06-16T07:56:12.348672,15.29835141,.00045177,97.2536,217.2056,128.8087,231.3558,0,U,57401,999,16151,.18670087E-3,.5321E-4,0
TIANMU-1 10,2023-101D,2026-06-16T07:09:35.191008,15.29806417,.00061322,97.2618,218.2236,128.3543,231.8250,0,U,57402,999,16150,.19429895E-3,.5537E-4,0
FENGYUN 3F,2023-111A,2026-06-16T08:09:38.668896,14.19938959,.00015875,98.6835,237.3645,94.1891,265.9467,0,U,57490,999,14874,.36518132E-4,.34E-6,0
ARKTIKA-M 2,2023-198A,2026-06-09T18:48:45.592992,2.00606537,.69004015,63.2205,155.1874,267.4353,18.7899,0,U,58584,999,1817,0,.212E-5,0
TIANMU-1 11,2023-205A,2026-06-16T07:59:02.675904,15.26988846,.00090766,97.3440,188.9030,20.0634,340.0960,0,U,58645,999,13739,.18509852E-3,.4835E-4,0
TIANMU-1 12,2023-205B,2026-06-16T07:16:20.446752,15.26952876,.00068421,97.3429,188.6296,6.8267,353.3064,0,U,58646,999,13737,.18400585E-3,.4799E-4,0
TIANMU-1 13,2023-205C,2026-06-16T08:02:33.593856,15.26806706,.00059996,97.3457,188.9337,345.0500,15.0560,0,U,58647,999,13737,.18884103E-3,.4904E-4,0
TIANMU-1 14,2023-205D,2026-06-16T07:41:17.570400,15.26851341,.00069804,97.3392,188.1016,348.9371,11.1713,0,U,58648,999,13737,.18748867E-3,.4876E-4,0
TIANMU-1 19,2023-208A,2026-06-16T07:22:00.332256,15.31563136,.00038925,97.4509,283.6017,332.1860,27.9172,0,U,58660,999,13719,.22086254E-3,.6654E-4,0
