FENGYUN 3D              
1 43010U 17072A   26167.23118726  .00000002  00000+0  22953-4 0  9993
2 43010  99.0120 141.6365 0002604  64.3389 295.8055 14.19739173444856
NOAA 20 (JPSS-1)        
1 43013U 17073A   26167.29647048  .00000054  00000+0  46715-4 0  9996
2 43013  98.7771 106.7670 0000286  88.6891 271.4318 14.19511601444349
GOES 17                 
1 43226U 18022A   26167.25417479 -.00000183  00000+0  00000+0 0  9992
2 43226   0.9353  85.7290 0000418  33.7087 147.0847  1.00269809 30415
SENTINEL-3B             
1 43437U 18039A   26167.06762833  .00000075  00000+0  49012-4 0  9990
2 43437  98.6250 234.6160 0000723  87.1563 272.9700 14.26734391423968
FENGYUN 2H              
1 43491U 18050A   26167.05897030 -.00000132  00000+0  00000+0 0  9994
2 43491   3.0276  79.0815 0002000 138.2067 147.6875  1.00269672 29428
METOP-C                 
1 43689U 18087A   26167.22339829  .00000087  00000+0  59576-4 0  9994
2 43689  98.6645 226.8446 0001728 130.8288 229.3040 14.21511898394691
GEO-KOMPSAT-2A          
1 43823U 18100A   26167.21114981 -.00000344  00000+0  00000+0 0  9999
2 43823   0.0519 117.7259 0001780 328.5841  22.4552  1.00270942 27628
METEOR-M2 2             
1 44387U 19038A   26167.26122610  .00000085  00000+0  56808-4 0  9992
2 44387  98.9137 154.5330 0002118  49.3401 310.7962 14.24365910361169
ARKTIKA-M 1             
1 47719U 21016A   26165.99849030 -.00000233  00000+0  00000+0 0  9997
2 47719  63.2382  57.9810 7287766 269.9259  14.6142  2.00623319 38745
FENGYUN 3E              
1 49008U 21062A   26167.28562662  .00000243  00000+0  13529-3 0  9992
2 49008  98.7484 170.7036 0002832  87.2113 272.9387 14.19904591256457
GOES 18                 
1 51850U 22021A   26167.24123309  .00000096  00000+0  00000+0 0  9995
2 51850   0.0151 101.4428 0000296  60.8043  52.1045  1.00270297  6580
NOAA 21 (JPSS-2)        
1 54234U 22150A   26167.25892047  .00000041  00000+0  40073-4 0  9999
2 54234  98.7060 106.0638 0001601 156.1659 203.9592 14.19565353186417
METEOSAT-12 (MTG-I1)    
1 54743U 22170C   26167.11442372 -.00000009  00000+0  00000+0 0  9999
2 54743   0.7370  22.7991 0003143  71.6629 210.7035  1.00272351 12961
TIANMU-1 03             
1 55973U 23039A   26167.27411179  .00012738  00000+0  25176-3 0  9994
2 55973  97.5226 341.2073 0004226 101.1946 258.9779 15.47262037180696
TIANMU-1 04             
1 55974U 23039B   26167.26394047  .00012930  00000+0  25029-3 0  9999
2 55974  97.5164 340.3504 0004846  98.1342 262.0458 15.47859632180705
TIANMU-1 05             
1 55975U 23039C   26167.31950738  .00012234  00000+0  24249-3 0  9991
2 55975  97.5212 340.8693 0003946 116.9111 243.2542 15.47190737180683
TIANMU-1 06             
1 55976U 23039D   26167.26726185  .00012847  00000+0  24954-3 0  9996
2 55976  97.5216 341.4502 0004341 112.8872 247.2836 15.47764047180707
FENGYUN 3G              
1 56232U 23055A   26167.20545853  .00019817  00000+0  32247-3 0  9993
2 56232  49.9934 351.0803 0006966 292.1767  67.8461 15.52589892179855
METEOR-M2 3             
1 57166U 23091A   26167.32558627 -.00000004  00000+0  17128-4 0  9997
2 57166  98.6090 222.3216 0004310 157.6976 202.4391 14.24046713154391
TIANMU-1 07             
1 57399U 23101A   26167.24980192  .00005473  00000+0  19217-3 0  9998
2 57399  97.2590 217.9397 0004048 123.6274 236.5354 15.29799362161500
TIANMU-1 08             
1 57400U 23101B   26167.28185689  .00005327  00000+0  18707-3 0  9994
2 57400  97.2578 217.7418 0005566 117.4037 242.7770 15.29803931161504
TIANMU-1 09             
1 57401U 23101C   26167.33069848  .00005321  00000+0  18670-3 0  9992
2 57401  97.2536 217.2056 0004517 128.8087 231.3558 15.29835141161515
TIANMU-1 10             
1 57402U 23101D   26167.29832397  .00005537  00000+0  19430-3 0  9999
2 57402  97.2618 218.2236 0006132 128.3543 231.8250 15.29806417161502
FENGYUN 3F              
1 57490U 23111A   26167.34003089  .00000034  00000+0  36518-4 0  9995
2 57490  98.6835 237.3645 0001587  94.1891 265.9467 14.19938959148740
ARKTIKA-M 2             
1 58584U 23198A   26160.78386103  .00000212  00000+0  00000+0 0  9997
2 58584  63.2205 155.1874 6900401 267.4353  18.7899  2.00606537 18179
TIANMU-1 11             
1 58645U 23205A   26167.33266986  .00004835  00000+0  18510-3 0  9992
2 58645  97.3440 188.9030 0009076  20.0634 340.0960 15.26988846137395
TIANMU-1 12             
1 58646U 23205B   26167.30301443  .00004799  00000+0  18401-3 0  9996
2 58646  97.3429 188.6296 0006842   6.8267 353.3064 15.26952876137370
TIANMU-1 13             
1 58647U 23205C   26167.33511104  .00004904  00000+0  18884-3 0  9990
2 58647  97.3457 188.9337 0005999 345.0500  15.0560 15.26806706137374
TIANMU-1 14             
1 58648U 23205D   26167.32034225  .00004876  00000+0  18749-3 0  9992
2 58648  97.3392 188.1016 0006980 348.9371  11.1713 15.26851341137370
TIANMU-1 19             
1 58660U 23208A   26167.30694829  .00006654  00000+0  22086-3 0  9994
2 58660  97.4509 283.6017 0003892 332.1860  27.9172 15.31563136137196
